*******************************************************************************
Ephemeris / WWW_USER Mon Mar 10 14:32:44 2025 Pasadena, USA      / Horizons    
*******************************************************************************
Target body name: (2018 KH3)                      {source: JPL#10}
Center body name: Earth (399)                     {source: DE441}
Center-site name: Mauna Kea
*******************************************************************************
Start time      : A.D. 2018-Nov-29 03:51:00.0000 UT      
Stop  time      : A.D. 2018-Nov-29 16:29:00.0000 UT      
Step-size       : 1 minutes
*******************************************************************************
Target pole/equ : undefined
Target radii    : undefined                                                    
Center geodetic : 204.5278, 19.8260847, 4.21024   {E-lon(deg),Lat(deg),Alt(km)}
Center cylindric: 204.5278, 6006.35451, 2151.0229 {E-lon(deg),Dxy(km),Dz(km)}
Center pole/equ : ITRF93                          {East-longitude positive}
Center radii    : 6378.137, 6378.137, 6356.752 km {Equator_a, b, pole_c}       
Target primary  : Sun
Vis. interferer : MOON (R_eq= 1737.400) km        {source: DE441}
Rel. light bend : Sun                             {source: DE441}
Rel. lght bnd GM: 1.3271E+11 km^3/s^2                                          
Small-body perts: Yes                             {source: SB441-N16}
Atmos refraction: NO (AIRLESS)
RA format       : HMS
Time format     : CAL 
Calendar mode   : Mixed Julian/Gregorian
RTS-only print  : NO       
EOP file        : eop.250307.p250603                                           
EOP coverage    : DATA-BASED 1962-JAN-20 TO 2025-MAR-07. PREDICTS-> 2025-JUN-02
Units conversion: 1 au= 149597870.700 km, c= 299792.458 km/s, 1 day= 86400.0 s 
Table cut-offs 1: Elevation (-90.0deg=NO ),Airmass (>38.000=NO), Daylight (YES)
Table cut-offs 2: Solar elongation (  0.0,180.0=NO ),Local Hour Angle( 0.0=NO )
Table cut-offs 3: RA/DEC angular rate (     0.0=NO )                           
*******************************************************************************
Initial IAU76/J2000 heliocentric ecliptic osculating elements (au, days, deg.):
  EPOCH=  2458288.5 ! 2018-Jun-19.00 (TDB)         Residual RMS= .22282        
   EC= .960925581819226    QR= 3.698978437965829   TP= 2457875.4618278281      
   OM= 293.0370088641419   W=  320.1514802298502   IN= 46.86534913190896       
  Equivalent ICRF heliocentric cartesian coordinates (au, au/d):
   X= 3.123713088662113E+00  Y=-4.022617727101489E+00  Z=-9.776572180429732E-02
  VX= 7.160289219203867E-03 VY=-1.601856640773144E-03 VZ= 7.695430476273978E-03
Asteroid physical parameters (km, seconds, rotational period in hours):        
   GM= n.a.                RAD= n.a.               ROTPER= n.a.                
   H= 13.69                G= .150                 B-V= n.a.                   
                           ALBEDO= n.a.            STYP= n.a.                  
*******************************************************************************
 Date__(UT)__HR:MN     R.A._________(ICRF)_________DEC
******************************************************
$$SOE
 2018-Nov-29 10:00  m  20 29 10.776670 +07 09 32.64459
 2018-Nov-29 10:01  m  20 29 10.797584 +07 09 32.70092
 2018-Nov-29 10:02  m  20 29 10.818500 +07 09 32.75725
 2018-Nov-29 10:03  m  20 29 10.839418 +07 09 32.81359
 2018-Nov-29 10:04  m  20 29 10.860337 +07 09 32.86993
 2018-Nov-29 10:05  m  20 29 10.881258 +07 09 32.92627
 2018-Nov-29 10:06  m  20 29 10.902180 +07 09 32.98261
 2018-Nov-29 10:07  m  20 29 10.923105 +07 09 33.03896
 2018-Nov-29 10:08  m  20 29 10.944030 +07 09 33.09531
 2018-Nov-29 10:09  m  20 29 10.964958 +07 09 33.15166
 2018-Nov-29 10:10  m  20 29 10.985887 +07 09 33.20802
 2018-Nov-29 10:11  m  20 29 11.006818 +07 09 33.26438
 2018-Nov-29 10:12  m  20 29 11.027751 +07 09 33.32074
 2018-Nov-29 10:13  m  20 29 11.048685 +07 09 33.37710
 2018-Nov-29 10:14  m  20 29 11.069621 +07 09 33.43347
 2018-Nov-29 10:15  m  20 29 11.090558 +07 09 33.48984
 2018-Nov-29 10:16  m  20 29 11.111498 +07 09 33.54622
 2018-Nov-29 10:17  m  20 29 11.132438 +07 09 33.60260
 2018-Nov-29 10:18  m  20 29 11.153381 +07 09 33.65898
 2018-Nov-29 10:19  m  20 29 11.174325 +07 09 33.71536
 2018-Nov-29 10:20  m  20 29 11.195271 +07 09 33.77175
 2018-Nov-29 10:21  m  20 29 11.216218 +07 09 33.82814
 2018-Nov-29 10:22  m  20 29 11.237167 +07 09 33.88454
 2018-Nov-29 10:23  m  20 29 11.258117 +07 09 33.94093
 2018-Nov-29 10:24  m  20 29 11.279070 +07 09 33.99733
 2018-Nov-29 10:25  m  20 29 11.300023 +07 09 34.05374
 2018-Nov-29 10:26  m  20 29 11.320979 +07 09 34.11014
 2018-Nov-29 10:27  m  20 29 11.341936 +07 09 34.16656
 2018-Nov-29 10:28  m  20 29 11.362894 +07 09 34.22297
 2018-Nov-29 10:29  m  20 29 11.383854 +07 09 34.27939
 2018-Nov-29 10:30  m  20 29 11.404816 +07 09 34.33581
 2018-Nov-29 10:31  m  20 29 11.425780 +07 09 34.39223
 2018-Nov-29 10:32  m  20 29 11.446745 +07 09 34.44866
 2018-Nov-29 10:33  m  20 29 11.467711 +07 09 34.50509
 2018-Nov-29 10:34  m  20 29 11.488679 +07 09 34.56152
 2018-Nov-29 10:35  m  20 29 11.509649 +07 09 34.61796
 2018-Nov-29 10:36  m  20 29 11.530620 +07 09 34.67440
 2018-Nov-29 10:37  m  20 29 11.551593 +07 09 34.73084
 2018-Nov-29 10:38  m  20 29 11.572567 +07 09 34.78729
 2018-Nov-29 10:39  m  20 29 11.593543 +07 09 34.84374
 2018-Nov-29 10:40  m  20 29 11.614521 +07 09 34.90020
 2018-Nov-29 10:41  m  20 29 11.635500 +07 09 34.95665
 2018-Nov-29 10:42  m  20 29 11.656480 +07 09 35.01311
 2018-Nov-29 10:43  m  20 29 11.677462 +07 09 35.06958
 2018-Nov-29 10:44  m  20 29 11.698446 +07 09 35.12605
 2018-Nov-29 10:45  m  20 29 11.719431 +07 09 35.18252
 2018-Nov-29 10:46  m  20 29 11.740418 +07 09 35.23899
 2018-Nov-29 10:47  m  20 29 11.761406 +07 09 35.29547
 2018-Nov-29 10:48  m  20 29 11.782395 +07 09 35.35196
 2018-Nov-29 10:49  m  20 29 11.803387 +07 09 35.40844
 2018-Nov-29 10:50  m  20 29 11.824379 +07 09 35.46493
 2018-Nov-29 10:51  m  20 29 11.845374 +07 09 35.52142
 2018-Nov-29 10:52  m  20 29 11.866369 +07 09 35.57792
 2018-Nov-29 10:53  m  20 29 11.887366 +07 09 35.63442
 2018-Nov-29 10:54  m  20 29 11.908365 +07 09 35.69092
 2018-Nov-29 10:55  m  20 29 11.929365 +07 09 35.74743
 2018-Nov-29 10:56  m  20 29 11.950367 +07 09 35.80394
 2018-Nov-29 10:57  m  20 29 11.971370 +07 09 35.86046
 2018-Nov-29 10:58  m  20 29 11.992375 +07 09 35.91697
 2018-Nov-29 10:59  m  20 29 12.013381 +07 09 35.97350
 2018-Nov-29 11:00  m  20 29 12.034388 +07 09 36.03002
 2018-Nov-29 11:01  m  20 29 12.055397 +07 09 36.08655
 2018-Nov-29 11:02  m  20 29 12.076408 +07 09 36.14308
 2018-Nov-29 11:03  m  20 29 12.097420 +07 09 36.19962
 2018-Nov-29 11:04  m  20 29 12.118433 +07 09 36.25616
 2018-Nov-29 11:05  m  20 29 12.139448 +07 09 36.31270
 2018-Nov-29 11:06  m  20 29 12.160464 +07 09 36.36925
 2018-Nov-29 11:07  m  20 29 12.181481 +07 09 36.42580
 2018-Nov-29 11:08  m  20 29 12.202500 +07 09 36.48236
 2018-Nov-29 11:09  m  20 29 12.223521 +07 09 36.53892
 2018-Nov-29 11:10  m  20 29 12.244543 +07 09 36.59548
 2018-Nov-29 11:11  m  20 29 12.265566 +07 09 36.65205
 2018-Nov-29 11:12  m  20 29 12.286591 +07 09 36.70862
 2018-Nov-29 11:13  m  20 29 12.307617 +07 09 36.76519
 2018-Nov-29 11:14  m  20 29 12.328644 +07 09 36.82177
 2018-Nov-29 11:15  m  20 29 12.349673 +07 09 36.87835
 2018-Nov-29 11:16  m  20 29 12.370703 +07 09 36.93494
 2018-Nov-29 11:17  m  20 29 12.391735 +07 09 36.99152
 2018-Nov-29 11:18  m  20 29 12.412768 +07 09 37.04812
 2018-Nov-29 11:19  m  20 29 12.433802 +07 09 37.10471
 2018-Nov-29 11:20  m  20 29 12.454838 +07 09 37.16132
 2018-Nov-29 11:21  m  20 29 12.475875 +07 09 37.21792
 2018-Nov-29 11:22  m  20 29 12.496913 +07 09 37.27453
 2018-Nov-29 11:23  m  20 29 12.517953 +07 09 37.33114
 2018-Nov-29 11:24  m  20 29 12.538994 +07 09 37.38776
 2018-Nov-29 11:25  m  20 29 12.560036 +07 09 37.44438
 2018-Nov-29 11:26  m  20 29 12.581080 +07 09 37.50100
 2018-Nov-29 11:27  m  20 29 12.602125 +07 09 37.55763
 2018-Nov-29 11:28  m  20 29 12.623172 +07 09 37.61426
 2018-Nov-29 11:29  m  20 29 12.644219 +07 09 37.67090
 2018-Nov-29 11:30  m  20 29 12.665268 +07 09 37.72754
 2018-Nov-29 11:31  m  20 29 12.686319 +07 09 37.78418
 2018-Nov-29 11:32  m  20 29 12.707370 +07 09 37.84083
 2018-Nov-29 11:33  m  20 29 12.728423 +07 09 37.89748
 2018-Nov-29 11:34  m  20 29 12.749477 +07 09 37.95414
 2018-Nov-29 11:35  m  20 29 12.770533 +07 09 38.01080
 2018-Nov-29 11:36  m  20 29 12.791590 +07 09 38.06746
 2018-Nov-29 11:37  m  20 29 12.812648 +07 09 38.12413
 2018-Nov-29 11:38  m  20 29 12.833707 +07 09 38.18080
 2018-Nov-29 11:39  m  20 29 12.854767 +07 09 38.23748
 2018-Nov-29 11:40  m  20 29 12.875829 +07 09 38.29416
 2018-Nov-29 11:41  m  20 29 12.896892 +07 09 38.35084
 2018-Nov-29 11:42  m  20 29 12.917957 +07 09 38.40753
 2018-Nov-29 11:43  m  20 29 12.939022 +07 09 38.46422
 2018-Nov-29 11:44  m  20 29 12.960089 +07 09 38.52092
 2018-Nov-29 11:45  m  20 29 12.981157 +07 09 38.57762
 2018-Nov-29 11:46  m  20 29 13.002226 +07 09 38.63433
 2018-Nov-29 11:47  m  20 29 13.023296 +07 09 38.69103
 2018-Nov-29 11:48  m  20 29 13.044368 +07 09 38.74775
 2018-Nov-29 11:49  m  20 29 13.065441 +07 09 38.80446
 2018-Nov-29 11:50  m  20 29 13.086515 +07 09 38.86119
 2018-Nov-29 11:51  m  20 29 13.107590 +07 09 38.91791
 2018-Nov-29 11:52  m  20 29 13.128666 +07 09 38.97464
 2018-Nov-29 11:53  m  20 29 13.149744 +07 09 39.03137
 2018-Nov-29 11:54  m  20 29 13.170823 +07 09 39.08811
 2018-Nov-29 11:55  m  20 29 13.191902 +07 09 39.14485
 2018-Nov-29 11:56  m  20 29 13.212983 +07 09 39.20160
 2018-Nov-29 11:57  m  20 29 13.234066 +07 09 39.25835
 2018-Nov-29 11:58  m  20 29 13.255149 +07 09 39.31511
 2018-Nov-29 11:59  m  20 29 13.276233 +07 09 39.37186
 2018-Nov-29 12:00  m  20 29 13.297319 +07 09 39.42863
 2018-Nov-29 12:01  m  20 29 13.318406 +07 09 39.48539
 2018-Nov-29 12:02  m  20 29 13.339494 +07 09 39.54217
